	Class "spacecraft"
	Mesh "satellite.3ds"
	Radius 0.005

	EllipticalOrbit
	{
		Period		0.0744882  # days
		SemiMajorAxis	7478.1
		Eccentricity	0.0001
		Inclination	32.0
		AscendingNode	112
		ArgOfPericenter	314.15
		Epoch	2293202.824041170000
	}
	Albedo	1.0
}

  "µS-48-80-20" "Sol/Earth"
{
	Class "spacecraft"
	Mesh "satellite.3ds"
	Radius 0.005

	EllipticalOrbit
	{
		Period		0.0744882  # days
		SemiMajorAxis	7478.1
		Eccentricity	0.0001
		Inclination	48.0
		AscendingNode	128
		ArgOfPericenter	314.15
		Epoch	2293202.824041170000
	}
	Albedo	1.0
}

  "µS-79-80-20" "Sol/Earth"
{
	Class "spacecraft"
	Mesh "satellite.3ds"
	Radius 0.005

	EllipticalOrbit
	{
		Period		0.0744882  # days
		SemiMajorAxis	7478.1
		Eccentricity	0.0001
		Inclination	79.0
		AscendingNode	159
		ArgOfPericenter	314.15
		Epoch	2293202.824041170000
	}
	Albedo	1.0
}

  "µS-32-90-20" "Sol/Earth"
{
	Class "spacecraft"
	Mesh "satellite.3ds"
	Radius 0.005

	EllipticalOrbit
	{
		Period		0.0744882  # days
		SemiMajorAxis	7478.1
		Eccentricity	0.0001
		Inclination	32.0
		AscendingNode	122
		ArgOfPericenter	314.15
		Epoch	2279794.949041170000
	}
	Albedo	1.0
}

  "µS-48-90-20" "Sol/Earth"
{
	Class "spacecraft"
	Mesh "satellite.3ds"
	Radius 0.005

	EllipticalOrbit
	{
		Period		0.0744882  # days
		SemiMajorAxis	7478.1
		Eccentricity	0.0001
		Inclination	48.0
		AscendingNode	138
		ArgOfPericenter	314.15
		Epoch	2279794.949041170000
	}
	Albedo	1.0
}

  "µS-79-90-20" "Sol/Earth"
{
	Class "spacecraft"
	Mesh "satellite.3ds"
	Radius 0.005

	EllipticalOrbit
	{
		Period		0.0744882  # days
		SemiMajorAxis	7478.1
		Eccentricity	0.0001
		Inclination	79.0
		AscendingNode	169
		ArgOfPericenter	314.15
		Epoch	2279794.949041170000
	}
	Albedo	1.0
}

  "µS-32-100-20" "Sol/Earth"
{
	Class "spacecraft"
	Mesh "satellite.3ds"
	Radius 0.005

	EllipticalOrbit
	{
		Period		0.0744882  # days
		SemiMajorAxis	7478.1
		Eccentricity	0.0001
		Inclination	32.0
		AscendingNode	132
		ArgOfPericenter	314.15
		Epoch	2266387.074041170000
	}
	Albedo	1.0
}

  "µS-48-100-20" "Sol/Earth"
{
	Class "spacecraft"
	Mesh "satellite.3ds"
	Radius 0.005

	EllipticalOrbit
	{
		Period		0.0744882  # days
		SemiMajorAxis	7478.1
		Eccentricity	0.0001
		Inclination	48.0
		AscendingNode	148
		ArgOfPericenter	314.15
		Epoch	2266387.074041170000
	}
	Albedo	1.0
}

  "µS-79-100-20" "Sol/Earth"
{
	Class "spacecraft"
	Mesh "satellite.3ds"
	Radius 0.005

	EllipticalOrbit
	{
		Period		0.0744882  # days
		SemiMajorAxis	7478.1
		Eccentricity	0.0001
		Inclination	79.0
		AscendingNode	179
		ArgOfPericenter	314.15
		Epoch	2266387.074041170000
	}
	Albedo	1.0
}

  "µS-32-110-20" "Sol/Earth"
{
	Class "spacecraft"
	Mesh "satellite.3ds"
	Radius 0.005

	EllipticalOrbit
	{
		Period		0.0744882  # days
		SemiMajorAxis	7478.1
		Eccentricity	0.0001
		Inclination	32.0
		AscendingNode	142
		ArgOfPericenter	314.15
		Epoch	2252979.199041170000
	}
	Albedo	1.0
}

  "µS-48-110-20" "Sol/Earth"
{
	Class "spacecraft"
	Mesh "satellite.3ds"
	Radius 0.005

	EllipticalOrbit
	{
		Period		0.0744882  # days
		SemiMajorAxis	7478.1
		Eccentricity	0.0001
		Inclination	48.0
		AscendingNode	158
		ArgOfPericenter	314.15
		Epoch	2252979.199041170000
	}
	Albedo	1.0
}

  "µS-79-110-20" "Sol/Earth"
{
	Class "spacecraft"
	Mesh "satellite.3ds"
	Radius 0.005

	EllipticalOrbit
	{
		Period		0.0744882  # days
		SemiMajorAxis	7478.1
		Eccentricity	0.0001
		Inclination	79.0
		AscendingNode	189
		ArgOfPericenter	314.15
		Epoch	2252979.199041170000
	}
	Albedo	1.0
}

  "µS-32-120-20" "Sol/Earth"
{
	Class "spacecraft"
	Mesh "satellite.3ds"
	Radius 0.005

	EllipticalOrbit
	{
		Period		0.0744882  # days
		SemiMajorAxis	7478.1
		Eccentricity	0.0001
		Inclination	32.0
		AscendingNode	152
		ArgOfPericenter	314.15
		Epoch	2239571.324041170000
	}
	Albedo	1.0
}

  "µS-48-120-20" "Sol/Earth"
{
	Class "spacecraft"
	Mesh "satellite.3ds"
	Radius 0.005

	EllipticalOrbit
	{
		Period		0.0744882  # days
		SemiMajorAxis	7478.1
		Eccentricity	0.0001
		Inclination	48.0
		AscendingNode	168
		ArgOfPericenter	314.15
		Epoch	2239571.324041170000
	}
	Albedo	1.0
}

  "µS-79-120-20" "Sol/Earth"
{
	Class "spacecraft"
	Mesh "satellite.3ds"
	Radius 0.005

	EllipticalOrbit
	{
		Period		0.0744882  # days
		SemiMajorAxis	7478.1
		Eccentricity	0.0001
		Inclination	79.0
		AscendingNode	199
		ArgOfPericenter	314.15
		Epoch	2239571.324041170000
	}
	Albedo	1.0
}

  "µS-32-130-20" "Sol/Earth"
{
	Class "spacecraft"
	Mesh "satellite.3ds"
	Radius 0.005

	EllipticalOrbit
	{
		Period		0.0744882  # days
		SemiMajorAxis	7478.1
		Eccentricity	0.0001
		Inclination	32.0
		AscendingNode	162
		ArgOfPericenter	314.15
		Epoch	2226163.449041170000
	}
	Albedo	1.0
}

  "µS-48-130-20" "Sol/Earth"
{
	Class "spacecraft"
	Mesh "satellite.3ds"
	Radius 0.005

	EllipticalOrbit
	{
		Period		0.0744882  # days
		SemiMajorAxis	7478.1
		Eccentricity	0.0001
		Inclination	48.0
		AscendingNode	178
		ArgOfPericenter	314.15
		Epoch	2226163.449041170000
	}
	Albedo	1.0
}

  "µS-79-130-20" "Sol/Earth"
{
	Class "spacecraft"
	Mesh "satellite.3ds"
	Radius 0.005

	EllipticalOrbit
	{
		Period		0.0744882  # days
		SemiMajorAxis	7478.1
		Eccentricity	0.0001
		Inclination	79.0
		AscendingNode	209
		ArgOfPericenter	314.15
		Epoch	2226163.449041170000
	}
	Albedo	1.0
}

  "µS-32-140-20" "Sol/Earth"
{
	Class "spacecraft"
	Mesh "satellite.3ds"
	Radius 0.005

	EllipticalOrbit
	{
		Period		0.0744882  # days
		SemiMajorAxis	7478.1
		Eccentricity	0.0001
		Inclination	32.0
		AscendingNode	172
		ArgOfPericenter	314.15
		Epoch	2212755.574041170000
	}
	Albedo	1.0
}

  "µS-48-140-20" "Sol/Earth"
{
	Class "spacecraft"
	Mesh "satellite.3ds"
	Radius 0.005

	EllipticalOrbit
	{
		Period		0.0744882  # days
		SemiMajorAxis	7478.1
		Eccentricity	0.0001
		Inclination	48.0
		AscendingNode	188
		ArgOfPericenter	314.15
		Epoch	2212755.574041170000
	}
	Albedo	1.0
}

  "µS-79-140-20" "Sol/Earth"
{
	Class "spacecraft"
	Mesh "satellite.3ds"
	Radius 0.005

	EllipticalOrbit
	{
		Period		0.0744882  # days
		SemiMajorAxis	7478.1
		Eccentricity	0.0001
		Inclination	79.0
		AscendingNode	219
		ArgOfPericenter	314.15
		Epoch	2212755.574041170000
	}
	Albedo	1.0
}

  "µS-32-150-20" "Sol/Earth"
{
	Class "spacecraft"
	Mesh "satellite.3ds"
	Radius 0.005

	EllipticalOrbit
	{
		Period		0.0744882  # days
		SemiMajorAxis	7478.1
		Eccentricity	0.0001
		Inclination	32.0
		AscendingNode	182
		ArgOfPericenter	314.15
		Epoch	2199347.699041170000
	}
	Albedo	1.0
}

  "µS-48-150-20" "Sol/Earth"
{
	Class "spacecraft"
	Mesh "satellite.3ds"
	Radius 0.005

	EllipticalOrbit
	{
		Period		0.0744882  # days
		SemiMajorAxis	7478.1
		Eccentricity	0.0001
		Inclination	48.0
		AscendingNode	198
		ArgOfPericenter	314.15
		Epoch	2199347.699041170000
	}
	Albedo	1.0
}

  "µS-79-150-20" "Sol/Earth"
{
	Class "spacecraft"
	Mesh "satellite.3ds"
	Radius 0.005

	EllipticalOrbit
	{
		Period		0.0744882  # days
		SemiMajorAxis	7478.1
		Eccentricity	0.0001
		Inclination	79.0
		AscendingNode	229
		ArgOfPericenter	314.15
		Epoch	2199347.699041170000
	}
	Albedo	1.0
}

  "µS-32-160-20" "Sol/Earth"
{
	Class "spacecraft"
	Mesh "satellite.3ds"
	Radius 0.005

	EllipticalOrbit
	{
		Period		0.0744882  # days
		SemiMajorAxis	7478.1
		Eccentricity	0.0001
		Inclination	32.0
		AscendingNode	192
		ArgOfPericenter	314.15
		Epoch	2185939.824041170000
	}
	Albedo	1.0
}

  "µS-48-160-20" "Sol/Earth"
{
	Class "spacecraft"
	Mesh "satellite.3ds"
	Radius 0.005

	EllipticalOrbit
	{
		Period		0.0744882  # days
		SemiMajorAxis	7478.1
		Eccentricity	0.0001
		Inclination	48.0
		AscendingNode	208
		ArgOfPericenter	314.15
		Epoch	2185939.824041170000
	}
	Albedo	1.0
}

  "µS-79-160-20" "Sol/Earth"
{
	Class "spacecraft"
	Mesh "satellite.3ds"
	Radius 0.005

	EllipticalOrbit
	{
		Period		0.0744882  # days
		SemiMajorAxis	7478.1
		Eccentricity	0.0001
		Inclination	79.0
		AscendingNode	239
		ArgOfPericenter	314.15
		Epoch	2185939.824041170000
	}
	Albedo	1.0
}

  "µS-32-170-20" "Sol/Earth"
{
	Class "spacecraft"
	Mesh "satellite.3ds"
	Radius 0.005

	EllipticalOrbit
	{
		Period		0.0744882  # days
		SemiMajorAxis	7478.1
		Eccentricity	0.0001
		Inclination	32.0
		AscendingNode	202
		ArgOfPericenter	314.15
		Epoch	2172531.949041170000
	}
	Albedo	1.0
}

  "µS-48-170-20" "Sol/Earth"
{
	Class "spacecraft"
	Mesh "satellite.3ds"
	Radius 0.005

	EllipticalOrbit
	{
		Period		0.0744882  # days
		SemiMajorAxis	7478.1
		Eccentricity	0.0001
		Inclination	48.0
		AscendingNode	218
		ArgOfPericenter	314.15
		Epoch	2172531.949041170000
	}
	Albedo	1.0
}

  "µS-79-170-20" "Sol/Earth"
{
	Class "spacecraft"
	Mesh "satellite.3ds"
	Radius 0.005

	EllipticalOrbit
	{
		Period		0.0744882  # days
		SemiMajorAxis	7478.1
		Eccentricity	0.0001
		Inclination	79.0
		AscendingNode	249
		ArgOfPericenter	314.15
		Epoch	2172531.949041170000
	}
	Albedo	1.0
}

  "µS-32-180-20" "Sol/Earth"
{
	Class "spacecraft"
	Mesh "satellite.3ds"
	Radius 0.005

	EllipticalOrbit
	{
		Period		0.0744882  # days
		SemiMajorAxis	7478.1
		Eccentricity	0.0001
		Inclination	32.0
		AscendingNode	212
		ArgOfPericenter	314.15
		Epoch	2159124.074041170000
	}
	Albedo	1.0
}

  "µS-48-180-20" "Sol/Earth"
{
	Class "spacecraft"
	Mesh "satellite.3ds"
	Radius 0.005

	EllipticalOrbit
	{
		Period		0.0744882  # days
		SemiMajorAxis	7478.1
		Eccentricity	0.0001
		Inclination	48.0
		AscendingNode	228
		ArgOfPericenter	314.15
		Epoch	2159124.074041170000
	}
	Albedo	1.0
}

  "µS-79-180-20" "Sol/Earth"
{
	Class "spacecraft"
	Mesh "satellite.3ds"
	Radius 0.005

	EllipticalOrbit
	{
		Period		0.0744882  # days
		SemiMajorAxis	7478.1
		Eccentricity	0.0001
		Inclination	79.0
		AscendingNode	259
		ArgOfPericenter	314.15
		Epoch	2159124.074041170000
	}
	Albedo	1.0
}

  "µS-32-190-20" "Sol/Earth"
{
	Class "spacecraft"
	Mesh "satellite.3ds"
	Radius 0.005

	EllipticalOrbit
	{
		Period		0.0744882  # days
		SemiMajorAxis	7478.1
		Eccentricity	0.0001
		Inclination	32.0
		AscendingNode	222
		ArgOfPericenter	314.15
		Epoch	2145716.199041170000
	}
	Albedo	1.0
}

  "µS-48-190-20" "Sol/Earth"
{
	Class "spacecraft"
	Mesh "satellite.3ds"
	Radius 0.005

	EllipticalOrbit
	{
